{
  "type": "Feature",
  "properties": {
    "name": "Eleven-minute synthetic probe journey",
    "altitude_datum": "msl",
    "geoid_sep_m": 0,
    "altitude_provenance": "All route coordinates, MSL heights and geoid separation are explicit example fixtures, not measurements.",
    "times": [
      "2026-01-01T12:00:00Z", "2026-01-01T12:01:00Z",
      "2026-01-01T12:02:00Z", "2026-01-01T12:03:00Z",
      "2026-01-01T12:04:00Z", "2026-01-01T12:05:00Z",
      "2026-01-01T12:06:00Z", "2026-01-01T12:07:00Z",
      "2026-01-01T12:08:00Z", "2026-01-01T12:09:00Z",
      "2026-01-01T12:10:00Z", "2026-01-01T12:11:00Z"
    ]
  },
  "geometry": {
    "type": "LineString",
    "coordinates": [
      [-73.970000, 40.770000, 25],
      [-73.970000, 40.770000, 25],
      [-73.965250, 40.770000, 26],
      [-73.965250, 40.773597, 29],
      [-73.970000, 40.773597, 27],
      [-73.970000, 40.770000, 25],
      [-73.970000, 40.770000, 25],
      [-73.969050, 40.770000, 25.4],
      [-73.969050, 40.770719, 26],
      [-73.970000, 40.770719, 25.4],
      [-73.970000, 40.770000, 25],
      [-73.970000, 40.770000, 25]
    ]
  }
}
